{
    "links": {
        "self": "http://www.neowsapp.com/rest/v1/neo/3682462?api_key=iIulBulltgU6a56xZRHN4H3l9WmuAYTsLGpBGhQ2"
    },
    "id": "3682462",
    "neo_reference_id": "3682462",
    "name": "(2014 QB33)",
    "designation": "2014 QB33",
    "nasa_jpl_url": "http://ssd.jpl.nasa.gov/sbdb.cgi?sstr=3682462",
    "absolute_magnitude_h": 25.6,
    "estimated_diameter": {
        "kilometers": {
            "estimated_diameter_min": 0.0201629919,
            "estimated_diameter_max": 0.0450858206
        },
        "meters": {
            "estimated_diameter_min": 20.1629919443,
            "estimated_diameter_max": 45.0858206172
        },
        "miles": {
            "estimated_diameter_min": 0.0125286985,
            "estimated_diameter_max": 0.0280150214
        },
        "feet": {
            "estimated_diameter_min": 66.1515504905,
            "estimated_diameter_max": 147.9193637137
        }
    },
    "is_potentially_hazardous_asteroid": false,
    "close_approach_data": [
        {
            "close_approach_date": "2014-08-30",
            "close_approach_date_full": "2014-Aug-30 08:27",
            "epoch_date_close_approach": 1409387220000,
            "relative_velocity": {
                "kilometers_per_second": "5.7745552958",
                "kilometers_per_hour": "20788.3990649262",
                "miles_per_hour": "12917.1027412037"
            },
            "miss_distance": {
                "astronomical": "0.0716321465",
                "lunar": "27.8649049885",
                "kilometers": "10716016.539927955",
                "miles": "6658623.913417579"
            },
            "orbiting_body": "Earth"
        }
    ],
    "orbital_data": {
        "orbit_id": "8",
        "orbit_determination_date": "2017-04-06 08:39:15",
        "first_observation_date": "2014-08-20",
        "last_observation_date": "2014-09-26",
        "data_arc_in_days": 37,
        "observations_used": 28,
        "orbit_uncertainty": "7",
        "minimum_orbit_intersection": ".0700375",
        "jupiter_tisserand_invariant": "3.557",
        "epoch_osculation": "2459000.5",
        "eccentricity": ".4935714345509165",
        "semi_major_axis": "2.127710359093892",
        "inclination": "1.889251705590459",
        "ascending_node_longitude": "166.9912186468648",
        "orbital_period": "1133.619189533635",
        "perihelion_distance": "1.077533304847074",
        "perihelion_argument": "177.0497267741964",
        "aphelion_distance": "3.17788741334071",
        "perihelion_time": "2459174.567406077208",
        "mean_anomaly": "304.7219429890081",
        "mean_motion": ".317566960160671",
        "equinox": "J2000",
        "orbit_class": {
            "orbit_class_type": "AMO",
            "orbit_class_description": "Near-Earth asteroid orbits similar to that of 1221 Amor",
            "orbit_class_range": "1.017 AU < q (perihelion) < 1.3 AU"
        }
    },
    "is_sentry_object": false
}